FORMOSAT 7-1            
1 44349U 19036L   26068.08230957  .00004503  00000+0  36542-3 0  9993
2 44349  23.9993 347.0403 0001047  84.2943 275.7677 14.96019979369648
STARLINK-33956          
1 63927U 25098B   26068.87242837 -.00035110  00000+0 -29688-2 0  9990
2 63927  70.0020 273.8381 0001317 251.6573 108.4443 14.98081570 46604
